First Name,Middle Name,Last Name,Address 1,Address 2,City ,State ,Zip
Isaias,,Lynch,5 Old Strawberry Lane,,Chesapeake,VA,23320
Edna,,Jarvis,778 E. Roehampton Lane,,Little Falls,NJ,7424
Pedro,,Willis,88 Oak Dr.,,Methuen,MA,1844
Bryon,,Thompson,8 Orange Drive,,Cape Coral,FL,33904
Kyle,,Moss,358 Greenrose Lane,,Cincinnati,OH,45211
Amy,,Shaffer,3 Mountainview Drive,,Roselle,IL,60172
Casandra,,Chen,9 Rose Street,,Solon,OH,44139
Louis,,Cunningham,97 La Sierra Ave.,,Fullerton,CA,92831
Xavier,,Moon,917 Ridgeview Rd.,,Potomac,MD,20854
Winston,,Beasley,680 Smith Rd.,,Harrisonburg,VA,22801
Theodore,,Roth,7714 Old Valley Avenue,,Westbury,NY,11590
Adolfo,,Contreras,592 Fordham St.,,Chelsea,MA,2150
Kimberley,,Higgins,71 West Marlborough Court,,Taylors,SC,29687
Sara,,Rosales,7196 W. Jennings Street,,Levittown,NY,11756
Sallie,,Armstrong,163 Foster Ave.,,Forney,TX,75126
Leonor,,Gregory,18 N. Harvard Street,,State College,PA,16801
Alex,,Wilkinson,290 Branch Rd.,#103,La Vergne,TN,37086
Shannon,,Dodson,7 East Manhattan Avenue,,Lorain,OH,44052
Lou,,Gardner,575 Country Club Ave.,,Royal Oak,MI,76006
Merlin,,Benton,98 Amherst St.,,North Miami Beach,FL,63033
